{"type": "FeatureCollection", "features": [ {"type": "Feature", "properties": {"norad_id": 38799, "name": "FENGYUN 1C DEB", "group": "fengyun-1c-debris", "lat": -50.7440530564634, "lon": -121.61993788795988, "alt_km": 752.0688708500502, "timestamp": "2025-12-19T08:58:49.627965+00:00", "meta": {"OBJECT_NAME": "FENGYUN 1C DEB", "OBJECT_ID": "1999-025EUP", "EPOCH": "2025-12-17T22:45:09.703872", "MEAN_MOTION": 14.48783843, "ECCENTRICITY": 0.01634283, "INCLINATION": 98.4059, "RA_OF_ASC_NODE": 67.3844, "ARG_OF_PERICENTER": 334.4042, "MEAN_ANOMALY": 24.9125, "EPHEMERIS_TYPE": 0, "CLASSIFICATION_TYPE": "U", "NORAD_CAT_ID": 38799, "ELEMENT_SET_NO": 999, "REV_AT_EPOCH": 64114, "BSTAR": 0.00068941476, "MEAN_MOTION_DOT": 3.031e-05, "MEAN_MOTION_DDOT": 0}, "tle": {"line1": "1 38799U 99025EUP 25351.94802898  .00003031  00000+0  68941-3 0  9992", "line2": "2 38799  98.4059  67.3844 0163428 334.4042  24.9125 14.48783843641148"}}, "geometry": {"type": "Point", "coordinates": [-121.61993788795988, -50.7440530564634]}}, {"type": "Feature", "properties": {"norad_id": 38801, "name": "FENGYUN 1C DEB", "group": "fengyun-1c-debris", "lat": -63.06543173202801, "lon": 60.558617177928994, "alt_km": 613.4359298993795, "timestamp": "2025-12-19T08:58:49.627975+00:00", "meta": {"OBJECT_NAME": "FENGYUN 1C DEB", "OBJECT_ID": "1999-025EUR", "EPOCH": "2025-12-14T23:38:20.156064", "MEAN_MOTION": 14.2482334, "ECCENTRICITY": 0.03468339, "INCLINATION": 98.3742, "RA_OF_ASC_NODE": 39.5088, "ARG_OF_PERICENTER": 345.3815, "MEAN_ANOMALY": 131.5103, "EPHEMERIS_TYPE": 0, "CLASSIFICATION_TYPE": "U", "NORAD_CAT_ID": 38801, "ELEMENT_SET_NO": 999, "REV_AT_EPOCH": 64392, "BSTAR": 0.00040763026, "MEAN_MOTION_DOT": 1.732e-05, "MEAN_MOTION_DDOT": 0}, "tle": {"line1": "1 38801U 99025EUR 25348.98495551  .00001732  00000+0  40763-3 0  9998", "line2": "2 38801  98.3742  39.5088 0346833 345.3815 131.5103 14.24823340643923"}}, "geometry": {"type": "Point", "coordinates": [60.558617177928994, -63.06543173202801]}}, {"type": "Feature", "properties": {"norad_id": 38803, "name": "FENGYUN 1C DEB", "group": "fengyun-1c-debris", "lat": 37.56280798520968, "lon": -175.41391725384955, "alt_km": 835.7517989115368, "timestamp": "2025-12-19T08:58:49.627985+00:00", "meta": {"OBJECT_NAME": "FENGYUN 1C DEB", "OBJECT_ID": "1999-025EUT", "EPOCH": "2025-12-11T23:13:14.211840", "MEAN_MOTION": 14.23655987, "ECCENTRICITY": 0.006424, "INCLINATION": 99.1403, "RA_OF_ASC_NODE": 349.7804, "ARG_OF_PERICENTER": 38.5359, "MEAN_ANOMALY": 322.0379, "EPHEMERIS_TYPE": 0, "CLASSIFICATION_TYPE": "U", "NORAD_CAT_ID": 38803, "ELEMENT_SET_NO": 999, "REV_AT_EPOCH": 60201, "BSTAR": 0.003165, "MEAN_MOTION_DOT": 7.334e-05, "MEAN_MOTION_DDOT": 0}, "tle": {"line1": "1 38803U 99025EUT 25345.96752560  .00007334  00000+0  31650-2 0  9999", "line2": "2 38803  99.1403 349.7804 0064240  38.5359 322.0379 14.23655987602019"}}, "geometry": {"type": "Point", "coordinates": [-175.41391725384955, 37.56280798520968]}}, {"type": "Feature", "properties": {"norad_id": 38809, "name": "FENGYUN 1C DEB", "group": "fengyun-1c-debris", "lat": -38.11914016653377, "lon": 10.146201516684679, "alt_km": 680.9278751937645, "timestamp": "2025-12-19T08:58:49.627995+00:00", "meta": {"OBJECT_NAME": "FENGYUN 1C DEB", "OBJECT_ID": "1999-025EUZ", "EPOCH": "2025-12-17T06:21:31.292064", "MEAN_MOTION": 14.1818546, "ECCENTRICITY": 0.02227724, "INCLINATION": 98.5889, "RA_OF_ASC_NODE": 1.2928, "ARG_OF_PERICENTER": 314.9408, "MEAN_ANOMALY": 43.3884, "EPHEMERIS_TYPE": 0, "CLASSIFICATION_TYPE": "U", "NORAD_CAT_ID": 38809, "ELEMENT_SET_NO": 999, "REV_AT_EPOCH": 69270, "BSTAR": 0.0004339011, "MEAN_MOTION_DOT": 1.092e-05, "MEAN_MOTION_DDOT": 0}, "tle": {"line1": "1 38809U 99025EUZ 25351.26494551  .00001092  00000+0  43390-3 0  9998", "line2": "2 38809  98.5889   1.2928 0222772 314.9408  43.3884 14.18185460692702"}}, "geometry": {"type": "Point", "coordinates": [10.146201516684679, -38.11914016653377]}}, {"type": "Feature", "properties": {"norad_id": 38813, "name": "FENGYUN 1C DEB", "group": "fengyun-1c-debris", "lat": 66.42221538339597, "lon": -166.92416639446319, "alt_km": 813.6545624597875, "timestamp": "2025-12-19T08:58:49.628005+00:00", "meta": {"OBJECT_NAME": "FENGYUN 1C DEB", "OBJECT_ID": "1999-025EVD", "EPOCH": "2025-12-16T17:53:41.226720", "MEAN_MOTION": 14.20173865, "ECCENTRICITY": 0.00065742, "INCLINATION": 99.3457, "RA_OF_ASC_NODE": 348.1323, "ARG_OF_PERICENTER": 103.641, "MEAN_ANOMALY": 256.5497, "EPHEMERIS_TYPE": 0, "CLASSIFICATION_TYPE": "U", "NORAD_CAT_ID": 38813, "ELEMENT_SET_NO": 999, "REV_AT_EPOCH": 48307, "BSTAR": 0.00049318578, "MEAN_MOTION_DOT": 1.004e-05, "MEAN_MOTION_DDOT": 0}, "tle": {"line1": "1 38813U 99025EVD 25350.74561605  .00001004  00000+0  49319-3 0  9990", "line2": "2 38813  99.3457 348.1323 0006574 103.6410 256.5497 14.20173865483070"}}, "geometry": {"type": "Point", "coordinates": [-166.92416639446319, 66.42221538339597]}}, {"type": "Feature", "properties": {"norad_id": 38817, "name": "FENGYUN 1C DEB", "group": "fengyun-1c-debris", "lat": 56.34033349458707, "lon": -150.2300316610271, "alt_km": 849.9518275499277, "timestamp": "2025-12-19T08:58:49.628015+00:00", "meta": {"OBJECT_NAME": "FENGYUN 1C DEB", "OBJECT_ID": "1999-025EVH", "EPOCH": "2025-12-18T20:20:04.256736", "MEAN_MOTION": 13.57714066, "ECCENTRICITY": 0.02916459, "INCLINATION": 98.6002, "RA_OF_ASC_NODE": 222.4436, "ARG_OF_PERICENTER": 28.5247, "MEAN_ANOMALY": 333.1512, "EPHEMERIS_TYPE": 0, "CLASSIFICATION_TYPE": "U", "NORAD_CAT_ID": 38817, "ELEMENT_SET_NO": 999, "REV_AT_EPOCH": 65917, "BSTAR": 0.0018260776, "MEAN_MOTION_DOT": 1.696e-05, "MEAN_MOTION_DDOT": 0}, "tle": {"line1": "1 38817U 99025EVH 25352.84727149  .00001696  00000+0  18261-2 0  9992", "line2": "2 38817  98.6002 222.4436 0291645  28.5247 333.1512 13.57714066659178"}}, "geometry": {"type": "Point", "coordinates": [-150.2300316610271, 56.34033349458707]}}, {"type": "Feature", "properties": {"norad_id": 38818, "name": "FENGYUN 1C DEB", "group": "fengyun-1c-debris", "lat": 50.929162126417, "lon": -120.18426296966251, "alt_km": 713.3152430744576, "timestamp": "2025-12-19T08:58:49.628025+00:00", "meta": {"OBJECT_NAME": "FENGYUN 1C DEB", "OBJECT_ID": "1999-025EVJ", "EPOCH": "2025-12-17T22:10:52.629600", "MEAN_MOTION": 14.39500377, "ECCENTRICITY": 0.00884346, "INCLINATION": 98.2993, "RA_OF_ASC_NODE": 48.0535, "ARG_OF_PERICENTER": 84.0679, "MEAN_ANOMALY": 93.7681, "EPHEMERIS_TYPE": 0, "CLASSIFICATION_TYPE": "U", "NORAD_CAT_ID": 38818, "ELEMENT_SET_NO": 999, "REV_AT_EPOCH": 67322, "BSTAR": 0.00032125028, "MEAN_MOTION_DOT": 1.005e-05, "MEAN_MOTION_DDOT": 0}, "tle": {"line1": "1 38818U 99025EVJ 25351.92422025  .00001005  00000+0  32125-3 0  9996", "line2": "2 38818  98.2993  48.0535 0088434  84.0679  93.7681 14.39500377673229"}}, "geometry": {"type": "Point", "coordinates": [-120.18426296966251, 50.929162126417]}}, {"type": "Feature", "properties": {"norad_id": 38819, "name": "FENGYUN 1C DEB", "group": "fengyun-1c-debris", "lat": -30.311313128076414, "lon": -8.904297051809642, "alt_km": 885.11381559449, "timestamp": "2025-12-19T08:58:49.628035+00:00", "meta": {"OBJECT_NAME": "FENGYUN 1C DEB", "OBJECT_ID": "1999-025EVK", "EPOCH": "2025-12-17T06:26:43.673856", "MEAN_MOTION": 14.19379843, "ECCENTRICITY": 0.00799544, "INCLINATION": 98.6187, "RA_OF_ASC_NODE": 343.9601, "ARG_OF_PERICENTER": 181.3554, "MEAN_ANOMALY": 194.4657, "EPHEMERIS_TYPE": 0, "CLASSIFICATION_TYPE": "U", "NORAD_CAT_ID": 38819, "ELEMENT_SET_NO": 999, "REV_AT_EPOCH": 63542, "BSTAR": 0.00035586631, "MEAN_MOTION_DOT": 7.3e-06, "MEAN_MOTION_DDOT": 0}, "tle": {"line1": "1 38819U 99025EVK 25351.26856104  .00000730  00000+0  35587-3 0  9992", "line2": "2 38819  98.6187 343.9601 0079954 181.3554 194.4657 14.19379843635422"}}, "geometry": {"type": "Point", "coordinates": [-8.904297051809642, -30.311313128076414]}}, {"type": "Feature", "properties": {"norad_id": 38824, "name": "FENGYUN 1C DEB", "group": "fengyun-1c-debris", "lat": -52.68974865260313, "lon": -65.203279171832, "alt_km": 807.9483187185997, "timestamp": "2025-12-19T08:58:49.628046+00:00", "meta": {"OBJECT_NAME": "FENGYUN 1C DEB", "OBJECT_ID": "1999-025EVQ", "EPOCH": "2025-11-20T14:24:21.461760", "MEAN_MOTION": 14.13875773, "ECCENTRICITY": 0.00960414, "INCLINATION": 99.2955, "RA_OF_ASC_NODE": 97.2934, "ARG_OF_PERICENTER": 263.2679, "MEAN_ANOMALY": 95.7556, "EPHEMERIS_TYPE": 0, "CLASSIFICATION_TYPE": "U", "NORAD_CAT_ID": 38824, "ELEMENT_SET_NO": 999, "REV_AT_EPOCH": 68824, "BSTAR": 0.0027703315, "MEAN_MOTION_DOT": 5.443e-05, "MEAN_MOTION_DDOT": 0}, "tle": {"line1": "1 38824U 99025EVQ 25324.60024840  .00005443  00000+0  27703-2 0  9996", "line2": "2 38824  99.2955  97.2934 0096041 263.2679  95.7556 14.13875773688246"}}, "geometry": {"type": "Point", "coordinates": [-65.203279171832, -52.68974865260313]}}, {"type": "Feature", "properties": {"norad_id": 38827, "name": "FENGYUN 1C DEB", "group": "fengyun-1c-debris", "lat": -46.331419438930624, "lon": -172.79518271547994, "alt_km": 723.6640178803746, "timestamp": "2025-12-19T08:58:49.628056+00:00", "meta": {"OBJECT_NAME": "FENGYUN 1C DEB", "OBJECT_ID": "1999-025EVT", "EPOCH": "2025-12-15T08:22:40.312416", "MEAN_MOTION": 14.32871633, "ECCENTRICITY": 0.02162225, "INCLINATION": 98.3869, "RA_OF_ASC_NODE": 12.1956, "ARG_OF_PERICENTER": 305.0884, "MEAN_ANOMALY": 53.0194, "EPHEMERIS_TYPE": 0, "CLASSIFICATION_TYPE": "U", "NORAD_CAT_ID": 38827, "ELEMENT_SET_NO": 999, "REV_AT_EPOCH": 61097, "BSTAR": 0.00067109262, "MEAN_MOTION_DOT": 2.325e-05, "MEAN_MOTION_DDOT": 0}, "tle": {"line1": "1 38827U 99025EVT 25349.34907769  .00002325  00000+0  67109-3 0  9998", "line2": "2 38827  98.3869  12.1956 0216222 305.0884  53.0194 14.32871633610973"}}, "geometry": {"type": "Point", "coordinates": [-172.79518271547994, -46.331419438930624]}}]}